CELESTIS-17 & SHERPA-FX1
1 47486U 21006CB  26068.64311433  .00007207  00000+0  24301-3 0  9993
2 47486  97.2397 112.1052 0006630 178.1385 181.9882 15.30994801284065
STARLINK-35811          
1 66596U 25270J   26068.37318022  .00041822  00000+0  15204-2 0  9996
2 66596  43.0034  58.3000 0001095 287.3738  72.6994 15.27587209 17761
